OBJECT_NAME,OBJECT_ID,EPOCH,MEAN_MOTION,ECCENTRICITY,INCLINATION,RA_OF_ASC_NODE,ARG_OF_PERICENTER,MEAN_ANOMALY,EPHEMERIS_TYPE,CLASSIFICATION_TYPE,NORAD_CAT_ID,ELEMENT_SET_NO,REV_AT_EPOCH,BSTAR,MEAN_MOTION_DOT,MEAN_MOTION_DDOT
SCD 1,1993-009B,2026-07-19T21:26:02.366880,14.46129704,.0042037,24.9708,5.6350,123.9966,29.1906,0,U,22490,999,76585,.30603E-4,.298E-5,0
TECHSAT 1B (GO-32),1998-043D,2026-07-19T10:42:44.197632,14.24433824,.00022894,99.0088,194.0215,108.4800,251.6627,0,U,25397,999,45592,.20729446E-4,.1E-7,0
SCD 2,1998-060A,2026-07-19T18:30:36.101088,14.45535548,.0016987,24.9938,231.2156,107.1319,55.3863,0,U,25504,999,46504,.19983E-4,.253E-5,0
DLR-TUBSAT,1999-029B,2026-07-19T11:09:45.258624,14.52433739,.00130362,98.6713,197.0341,250.6388,109.3398,0,U,25757,999,43793,.12968453E-4,.4E-7,0
TERRA,1999-068A,2026-07-19T19:54:58.392000,14.61125686,.0003572,97.9437,249.0788,113.7703,357.4701,0,U,25994,999,41437,.40135E-4,.153E-5,0
MAROC-TUBSAT,2001-056D,2026-07-19T11:51:28.429056,13.70263605,.00205381,99.8102,17.9652,61.4923,358.0434,0,U,27004,999,23061,.5627902E-5,-.42E-6,0
AQUA,2002-022A,2026-07-19T21:27:11.333088,14.62132324,.0001283,98.4299,170.8350,102.0464,279.1344,0,U,27424,999,28805,.79001E-4,.348E-5,0
SHIYAN-1 (SY-1),2004-012A,2026-07-19T19:05:17.736288,15.34518638,.0004243,97.8677,281.0002,253.2336,106.8440,0,U,28220,999,21609,.2092E-3,.6908E-4,0
AURA,2004-026A,2026-07-19T20:26:38.628672,14.61371559,.0001385,98.3432,157.5798,93.9842,266.1516,0,U,28376,999,17098,.80014E-4,.347E-5,0
IRS-P5 (CARTOSAT-1),2005-017A,2026-07-19T00:30:22.752288,14.91122721,.00011334,97.5306,221.6419,52.0607,308.0714,0,U,28649,999,14856,.72486933E-4,.666E-5,0
SINAH 1,2005-043D,2026-07-19T20:33:47.220192,14.64177180,.0014723,98.2900,335.3782,169.1183,191.0340,0,U,28893,999,10530,.35083E-4,.135E-5,0
RESURS-DK 1,2006-021A,2026-07-19T13:21:50.503392,15.13327716,.0007374,69.9302,255.7527,266.3257,93.7066,0,U,29228,999,10747,.5477E-4,.869E-5,0
ARIRANG-2 (KOMPSAT-2),2006-031A,2026-07-19T19:45:33.565824,14.64677061,.0013839,97.8318,23.6921,335.8722,148.9814,0,U,29268,999,6625,.34268E-4,.137E-5,0
LAPAN-TUBSAT,2007-001A,2026-07-19T20:17:40.524288,14.85980272,.0013692,98.1359,200.8085,80.2576,280.0184,0,U,29709,999,5600,.38187E-4,.276E-5,0
HAIYANG-1B,2007-010A,2026-07-19T19:08:19.574592,14.31034033,.0014777,98.3518,181.3815,103.2579,257.0254,0,U,31113,999,530,.30346E-4,.38E-6,0
COSMO-SKYMED 1,2007-023A,2026-07-19T19:36:07.399584,14.97234347,.000176,97.8852,32.9491,98.5517,261.5904,0,U,31598,999,3467,.14956E-3,.1671E-4,0
TERRASAR-X,2007-026A,2026-07-19T11:12:45.154656,15.19149681,.000165,97.4461,207.7136,90.1408,270.0015,0,U,31698,999,5812,.9836E-5,.14E-5,0
WORLDVIEW-1 (WV-1),2007-041A,2026-07-19T18:48:43.000992,15.24587436,.0001985,97.3905,320.0722,187.4391,172.6818,0,U,32060,999,4784,.12509E-3,.3012E-4,0
YAOGAN-3,2007-055A,2026-07-19T21:08:15.250848,14.90888354,.0001347,97.8139,230.4355,80.9930,279.1440,0,U,32289,999,1074,.52029E-4,.457E-5,0
COSMO-SKYMED 2,2007-059A,2026-07-19T20:04:03.558720,14.82152439,.0001451,97.8896,23.9621,94.0628,266.0751,0,U,32376,999,684,.25307E-4,.149E-5,0
RADARSAT-2,2007-061A,2026-07-19T20:29:58.237728,14.29983553,.0001334,98.5787,207.3205,85.8960,274.2375,0,U,32382,999,97062,-.77023E-5,-.63E-6,0
CARTOSAT-2A,2008-021A,2026-07-19T20:28:32.820960,14.79279423,.0012117,97.7611,248.4441,12.9507,347.2014,0,U,32783,999,98363,.24186E-4,.13E-5,0
HUANJING 1A (HJ-1A),2008-041A,2026-07-19T20:49:41.196288,14.84056605,.0020067,97.6707,185.4468,35.3819,324.8723,0,U,33320,999,96325,.10637E-3,.838E-5,0
HUANJING 1B (HJ-1B),2008-041B,2026-07-19T20:26:47.609088,14.83369227,.0037943,97.6541,188.5037,76.7372,283.8070,0,U,33321,999,96325,.55803E-4,.411E-5,0
GEOEYE 1,2008-042A,2026-07-19T19:21:46.879776,14.64651415,.0003626,98.1324,274.3485,329.8309,30.2684,0,U,33331,999,95492,.40196E-4,.166E-5,0
THEOS,2008-049A,2026-07-19T20:55:12.600768,14.20135927,.0001117,98.5548,257.0912,91.1161,269.0144,0,U,33396,999,92260,-.93413E-4,-.241E-5,0
COSMO-SKYMED 3,2008-054A,2026-07-19T21:02:17.777760,15.07136109,.0016194,97.8248,59.9869,150.6501,209.5639,0,U,33412,999,96186,.15539E-3,.2275E-4,0
YAOGAN-4,2008-061A,2026-07-19T19:38:33.354240,14.83256289,.0013456,97.9302,134.0892,329.9882,30.0559,0,U,33446,999,95050,.63126E-4,.463E-5,0
GOSAT (IBUKI),2009-002A,2026-07-19T19:08:34.050912,14.67536148,.0001196,98.0920,311.4745,93.2961,266.8381,0,U,33492,999,93624,.59208E-4,.288E-5,0
DEIMOS-1,2009-041A,2026-07-19T21:05:13.515360,14.75267658,.0002798,97.7444,356.6956,85.3667,274.7862,0,U,35681,999,91170,.8572E-4,.532E-5,0
DUBAISAT-1,2009-041B,2026-07-19T18:48:11.255904,14.75170399,.0009564,98.0091,333.6918,333.1349,26.9363,0,U,35682,999,90990,.59439E-4,.351E-5,0
