SCD 1                   
1 22490U 93009B   26200.89308295  .00000298  00000+0  30603-4 0  9996
2 22490  24.9708   5.6350 0042037 123.9966  29.1906 14.46129704765856
TECHSAT 1B (GO-32)      
1 25397U 98043D   26200.44634488  .00000001  00000+0  20729-4 0  9995
2 25397  99.0088 194.0215 0002289 108.4800 251.6627 14.24433824455925
SCD 2                   
1 25504U 98060A   26200.77125117  .00000253  00000+0  19983-4 0  9993
2 25504  24.9938 231.2156 0016987 107.1319  55.3863 14.45535548465049
DLR-TUBSAT              
1 25757U 99029B   26200.46510716  .00000004  00000+0  12968-4 0  9998
2 25757  98.6713 197.0341 0013036 250.6388 109.3398 14.52433739437932
TERRA                   
1 25994U 99068A   26200.82984250  .00000153  00000+0  40135-4 0  9994
2 25994  97.9437 249.0788 0003572 113.7703 357.4701 14.61125686414373
MAROC-TUBSAT            
1 27004U 01056D   26200.49407904 -.00000042  00000+0  56279-5 0  9992
2 27004  99.8102  17.9652 0020538  61.4923 358.0434 13.70263605230619
AQUA                    
1 27424U 02022A   26200.89388117  .00000348  00000+0  79001-4 0  9995
2 27424  98.4299 170.8350 0001283 102.0464 279.1344 14.62132324288058
SHIYAN-1 (SY-1)         
1 28220U 04012A   26200.79534417  .00006908  00000+0  20920-3 0  9999
2 28220  97.8677 281.0002 0004243 253.2336 106.8440 15.34518638216095
AURA                    
1 28376U 04026A   26200.85183598  .00000347  00000+0  80014-4 0  9995
2 28376  98.3432 157.5798 0001385  93.9842 266.1516 14.61371559170985
IRS-P5 (CARTOSAT-1)     
1 28649U 05017A   26200.02109667  .00000666  00000+0  72487-4 0  9992
2 28649  97.5306 221.6419 0001133  52.0607 308.0714 14.91122721148561
SINAH 1                 
1 28893U 05043D   26200.85679653  .00000135  00000+0  35083-4 0  9992
2 28893  98.2900 335.3782 0014723 169.1183 191.0340 14.64177180105303
RESURS-DK 1             
1 29228U 06021A   26200.55683453  .00000869  00000+0  54770-4 0  9990
2 29228  69.9302 255.7527 0007374 266.3257  93.7066 15.13327716107475
ARIRANG-2 (KOMPSAT-2)   
1 29268U 06031A   26200.82330516  .00000137  00000+0  34268-4 0  9992
2 29268  97.8318  23.6921 0013839 335.8722 148.9814 14.64677061 66258
LAPAN-TUBSAT            
1 29709U 07001A   26200.84560792  .00000276  00000+0  38187-4 0  9991
2 29709  98.1359 200.8085 0013692  80.2576 280.0184 14.85980272 56006
HAIYANG-1B              
1 31113U 07010A   26200.79744878  .00000038  00000+0  30346-4 0  9991
2 31113  98.3518 181.3815 0014777 103.2579 257.0254 14.31034033  5300
COSMO-SKYMED 1          
1 31598U 07023A   26200.81675231  .00001671  00000+0  14956-3 0  9993
2 31598  97.8852  32.9491 0001760  98.5517 261.5904 14.97234347 34675
TERRASAR-X              
1 31698U 07026A   26200.46718929  .00000140  00000+0  98360-5 0  9993
2 31698  97.4461 207.7136 0001650  90.1408 270.0015 15.19149681 58126
WORLDVIEW-1 (WV-1)      
1 32060U 07041A   26200.78383103  .00003012  00000+0  12509-3 0  9991
2 32060  97.3905 320.0722 0001985 187.4391 172.6818 15.24587436 47849
YAOGAN-3                
1 32289U 07055A   26200.88073207  .00000457  00000+0  52029-4 0  9993
2 32289  97.8139 230.4355 0001347  80.9930 279.1440 14.90888354 10748
COSMO-SKYMED 2          
1 32376U 07059A   26200.83615230  .00000149  00000+0  25307-4 0  9994
2 32376  97.8896  23.9621 0001451  94.0628 266.0751 14.82152439  6847
RADARSAT-2              
1 32382U 07061A   26200.85414627 -.00000063  00000+0 -77023-5 0  9993
2 32382  98.5787 207.3205 0001334  85.8960 274.2375 14.29983553970623
CARTOSAT-2A             
1 32783U 08021A   26200.85315765  .00000130  00000+0  24186-4 0  9992
2 32783  97.7611 248.4441 0012117  12.9507 347.2014 14.79279423983637
HUANJING 1A (HJ-1A)     
1 33320U 08041A   26200.86783792  .00000838  00000+0  10637-3 0  9992
2 33320  97.6707 185.4468 0020067  35.3819 324.8723 14.84056605963252
HUANJING 1B (HJ-1B)     
1 33321U 08041B   26200.85193992  .00000411  00000+0  55803-4 0  9991
2 33321  97.6541 188.5037 0037943  76.7372 283.8070 14.83369227963254
GEOEYE 1                
1 33331U 08042A   26200.80679259  .00000166  00000+0  40196-4 0  9999
2 33331  98.1324 274.3485 0003626 329.8309  30.2684 14.64651415954925
THEOS                   
1 33396U 08049A   26200.87167362 -.00000241  00000+0 -93413-4 0  9997
2 33396  98.5548 257.0912 0001117  91.1161 269.0144 14.20135927922609
COSMO-SKYMED 3          
1 33412U 08054A   26200.87659465  .00002275  00000+0  15539-3 0  9991
2 33412  97.8248  59.9869 0016194 150.6501 209.5639 15.07136109961865
YAOGAN-4                
1 33446U 08061A   26200.81844160  .00000463  00000+0  63126-4 0  9991
2 33446  97.9302 134.0892 0013456 329.9882  30.0559 14.83256289950508
GOSAT (IBUKI)           
1 33492U 09002A   26200.79761633  .00000288  00000+0  59208-4 0  9999
2 33492  98.0920 311.4745 0001196  93.2961 266.8381 14.67536148936246
DEIMOS-1                
1 35681U 09041A   26200.87862865  .00000532  00000+0  85720-4 0  9992
2 35681  97.7444 356.6956 0002798  85.3667 274.7862 14.75267658911706
DUBAISAT-1              
1 35682U 09041B   26200.78346361  .00000351  00000+0  59439-4 0  9998
2 35682  98.0091 333.6918 0009564 333.1349  26.9363 14.75170399909908
